{"type": "FeatureCollection", "features": [ {"type": "Feature", "properties": {"norad_id": 40115, "name": "WORLDVIEW-3 (WV-3)", "group": "resource", "lat": -0.484847807165184, "lon": 60.1188527519352, "alt_km": 618.4416728535762, "timestamp": "2025-12-13T18:50:04.085518+00:00", "meta": {"OBJECT_NAME": "WORLDVIEW-3 (WV-3)", "OBJECT_ID": "2014-048A", "EPOCH": "2025-12-13T05:54:14.167584", "MEAN_MOTION": 14.85514922, "ECCENTRICITY": 0.0004843, "INCLINATION": 97.8614, "RA_OF_ASC_NODE": 59.5199, "ARG_OF_PERICENTER": 182.8733, "MEAN_ANOMALY": 177.2455, "EPHEMERIS_TYPE": 0, "CLASSIFICATION_TYPE": "U", "NORAD_CAT_ID": 40115, "ELEMENT_SET_NO": 999, "REV_AT_EPOCH": 61431, "BSTAR": 0.00022973936, "MEAN_MOTION_DOT": 1.93e-05, "MEAN_MOTION_DDOT": 0}, "tle": {"line1": "1 40115U 14048A   25347.24599731  .00001930  00000+0  22974-3 0  9998", "line2": "2 40115  97.8614  59.5199 0004843 182.8733 177.2455 14.85514922614314"}}, "geometry": {"type": "Point", "coordinates": [60.1188527519352, -0.484847807165184]}}, {"type": "Feature", "properties": {"norad_id": 40118, "name": "GAOFEN-2", "group": "resource", "lat": 20.958923036720446, "lon": -129.94227745844788, "alt_km": 623.3316291929968, "timestamp": "2025-12-13T18:50:04.085529+00:00", "meta": {"OBJECT_NAME": "GAOFEN-2", "OBJECT_ID": "2014-049A", "EPOCH": "2025-12-13T06:46:01.825248", "MEAN_MOTION": 14.80614024, "ECCENTRICITY": 0.00086563, "INCLINATION": 98.0383, "RA_OF_ASC_NODE": 46.4511, "ARG_OF_PERICENTER": 111.4238, "MEAN_ANOMALY": 248.7898, "EPHEMERIS_TYPE": 0, "CLASSIFICATION_TYPE": "U", "NORAD_CAT_ID": 40118, "ELEMENT_SET_NO": 999, "REV_AT_EPOCH": 61172, "BSTAR": 0.00028001486, "MEAN_MOTION_DOT": 2.097e-05, "MEAN_MOTION_DDOT": 0}, "tle": {"line1": "1 40118U 14049A   25347.28196557  .00002097  00000+0  28001-3 0  9997", "line2": "2 40118  98.0383  46.4511 0008656 111.4238 248.7898 14.80614024611726"}}, "geometry": {"type": "Point", "coordinates": [-129.94227745844788, 20.958923036720446]}}, {"type": "Feature", "properties": {"norad_id": 40143, "name": "YAOGAN-21", "group": "resource", "lat": -74.55930021499572, "lon": 58.19028743857559, "alt_km": 504.7411055237453, "timestamp": "2025-12-13T18:50:04.085539+00:00", "meta": {"OBJECT_NAME": "YAOGAN-21", "OBJECT_ID": "2014-053A", "EPOCH": "2025-12-13T06:33:34.828992", "MEAN_MOTION": 15.23688633, "ECCENTRICITY": 0.00096149, "INCLINATION": 97.1758, "RA_OF_ASC_NODE": 30.5632, "ARG_OF_PERICENTER": 39.6888, "MEAN_ANOMALY": 320.5051, "EPHEMERIS_TYPE": 0, "CLASSIFICATION_TYPE": "U", "NORAD_CAT_ID": 40143, "ELEMENT_SET_NO": 999, "REV_AT_EPOCH": 62662, "BSTAR": 0.00036032287, "MEAN_MOTION_DOT": 8.593e-05, "MEAN_MOTION_DDOT": 0}, "tle": {"line1": "1 40143U 14053A   25347.27331978  .00008593  00000+0  36032-3 0  9997", "line2": "2 40143  97.1758  30.5632 0009614  39.6888 320.5051 15.23688633626625"}}, "geometry": {"type": "Point", "coordinates": [58.19028743857559, -74.55930021499572]}}, {"type": "Feature", "properties": {"norad_id": 40275, "name": "YAOGAN-22", "group": "resource", "lat": 55.469140785803205, "lon": 115.204421044943, "alt_km": 1200.9027771118617, "timestamp": "2025-12-13T18:50:04.085553+00:00", "meta": {"OBJECT_NAME": "YAOGAN-22", "OBJECT_ID": "2014-063A", "EPOCH": "2025-12-13T07:35:38.904000", "MEAN_MOTION": 13.1552264, "ECCENTRICITY": 0.00059566, "INCLINATION": 100.7422, "RA_OF_ASC_NODE": 130.744, "ARG_OF_PERICENTER": 246.8495, "MEAN_ANOMALY": 113.1989, "EPHEMERIS_TYPE": 0, "CLASSIFICATION_TYPE": "U", "NORAD_CAT_ID": 40275, "ELEMENT_SET_NO": 999, "REV_AT_EPOCH": 53537, "BSTAR": 7.437183e-06, "MEAN_MOTION_DOT": -4.4e-07, "MEAN_MOTION_DDOT": 0}, "tle": {"line1": "1 40275U 14063A   25347.31642250 -.00000044  00000+0  74372-5 0  9992", "line2": "2 40275 100.7422 130.7440 0005956 246.8495 113.1989 13.15522640535372"}}, "geometry": {"type": "Point", "coordinates": [115.204421044943, 55.469140785803205]}}, {"type": "Feature", "properties": {"norad_id": 40298, "name": "ASNARO", "group": "resource", "lat": -43.6394413441589, "lon": 70.79051279127006, "alt_km": 517.7068916681701, "timestamp": "2025-12-13T18:50:04.085564+00:00", "meta": {"OBJECT_NAME": "ASNARO", "OBJECT_ID": "2014-070A", "EPOCH": "2025-12-13T06:23:05.044704", "MEAN_MOTION": 15.19516725, "ECCENTRICITY": 0.00056581, "INCLINATION": 97.3652, "RA_OF_ASC_NODE": 63.1991, "ARG_OF_PERICENTER": 120.6273, "MEAN_ANOMALY": 239.552, "EPHEMERIS_TYPE": 0, "CLASSIFICATION_TYPE": "U", "NORAD_CAT_ID": 40298, "ELEMENT_SET_NO": 999, "REV_AT_EPOCH": 61577, "BSTAR": 0.00077847641, "MEAN_MOTION_DOT": 0.00016498, "MEAN_MOTION_DDOT": 0}, "tle": {"line1": "1 40298U 14070A   25347.26603061  .00016498  00000+0  77848-3 0  9994", "line2": "2 40298  97.3652  63.1991 0005658 120.6273 239.5520 15.19516725615775"}}, "geometry": {"type": "Point", "coordinates": [70.79051279127006, -43.6394413441589]}}, {"type": "Feature", "properties": {"norad_id": 40310, "name": "YAOGAN-24", "group": "resource", "lat": 53.46579862045353, "lon": -50.00386717509074, "alt_km": 626.1209552072078, "timestamp": "2025-12-13T18:50:04.085575+00:00", "meta": {"OBJECT_NAME": "YAOGAN-24", "OBJECT_ID": "2014-072A", "EPOCH": "2025-12-13T08:30:24.191424", "MEAN_MOTION": 14.76181233, "ECCENTRICITY": 0.00147923, "INCLINATION": 98.1218, "RA_OF_ASC_NODE": 118.4504, "ARG_OF_PERICENTER": 136.1883, "MEAN_ANOMALY": 224.0502, "EPHEMERIS_TYPE": 0, "CLASSIFICATION_TYPE": "U", "NORAD_CAT_ID": 40310, "ELEMENT_SET_NO": 999, "REV_AT_EPOCH": 59630, "BSTAR": 0.0002844226, "MEAN_MOTION_DOT": 1.917e-05, "MEAN_MOTION_DDOT": 0}, "tle": {"line1": "1 40310U 14072A   25347.35444666  .00001917  00000+0  28442-3 0  9991", "line2": "2 40310  98.1218 118.4504 0014792 136.1883 224.0502 14.76181233596309"}}, "geometry": {"type": "Point", "coordinates": [-50.00386717509074, 53.46579862045353]}}, {"type": "Feature", "properties": {"norad_id": 40336, "name": "CBERS 4", "group": "resource", "lat": 71.50436292754164, "lon": 19.78737174606695, "alt_km": 765.4815124316019, "timestamp": "2025-12-13T18:50:04.085585+00:00", "meta": {"OBJECT_NAME": "CBERS 4", "OBJECT_ID": "2014-079A", "EPOCH": "2025-12-13T06:47:01.817088", "MEAN_MOTION": 14.35518392, "ECCENTRICITY": 0.00016528, "INCLINATION": 98.3306, "RA_OF_ASC_NODE": 45.2805, "ARG_OF_PERICENTER": 111.5248, "MEAN_ANOMALY": 248.6115, "EPHEMERIS_TYPE": 0, "CLASSIFICATION_TYPE": "U", "NORAD_CAT_ID": 40336, "ELEMENT_SET_NO": 999, "REV_AT_EPOCH": 57728, "BSTAR": 0.00012678097, "MEAN_MOTION_DOT": 3.23e-06, "MEAN_MOTION_DDOT": 0}, "tle": {"line1": "1 40336U 14079A   25347.28265992  .00000323  00000+0  12678-3 0  9995", "line2": "2 40336  98.3306  45.2805 0001652 111.5248 248.6115 14.35518392577284"}}, "geometry": {"type": "Point", "coordinates": [19.78737174606695, 71.50436292754164]}}, {"type": "Feature", "properties": {"norad_id": 40362, "name": "YAOGAN-26", "group": "resource", "lat": 56.654460611539264, "lon": -22.44209352159927, "alt_km": 438.98396441015484, "timestamp": "2025-12-13T18:50:04.085596+00:00", "meta": {"OBJECT_NAME": "YAOGAN-26", "OBJECT_ID": "2014-088A", "EPOCH": "2025-12-13T07:39:56.692224", "MEAN_MOTION": 15.39335122, "ECCENTRICITY": 0.00061641, "INCLINATION": 97.0646, "RA_OF_ASC_NODE": 347.9726, "ARG_OF_PERICENTER": 28.8766, "MEAN_ANOMALY": 331.282, "EPHEMERIS_TYPE": 0, "CLASSIFICATION_TYPE": "U", "NORAD_CAT_ID": 40362, "ELEMENT_SET_NO": 999, "REV_AT_EPOCH": 60903, "BSTAR": 0.00076471179, "MEAN_MOTION_DOT": 0.0002987, "MEAN_MOTION_DDOT": 0}, "tle": {"line1": "1 40362U 14088A   25347.31940616  .00029870  00000+0  76471-3 0  9990", "line2": "2 40362  97.0646 347.9726 0006164  28.8766 331.2820 15.39335122609032"}}, "geometry": {"type": "Point", "coordinates": [-22.44209352159927, 56.654460611539264]}}, {"type": "Feature", "properties": {"norad_id": 40376, "name": "SMAP", "group": "resource", "lat": 20.47361739544387, "lon": -10.565600806913729, "alt_km": 682.0640187372037, "timestamp": "2025-12-13T18:50:04.085606+00:00", "meta": {"OBJECT_NAME": "SMAP", "OBJECT_ID": "2015-003A", "EPOCH": "2025-12-13T07:15:10.175040", "MEAN_MOTION": 14.63346436, "ECCENTRICITY": 0.00012025, "INCLINATION": 98.1292, "RA_OF_ASC_NODE": 352.0179, "ARG_OF_PERICENTER": 90.4343, "MEAN_ANOMALY": 269.6997, "EPHEMERIS_TYPE": 0, "CLASSIFICATION_TYPE": "U", "NORAD_CAT_ID": 40376, "ELEMENT_SET_NO": 999, "REV_AT_EPOCH": 58043, "BSTAR": 0.0001893382, "MEAN_MOTION_DOT": 9.31e-06, "MEAN_MOTION_DDOT": 0}, "tle": {"line1": "1 40376U 15003A   25347.30220110  .00000931  00000+0  18934-3 0  9999", "line2": "2 40376  98.1292 352.0179 0001202  90.4343 269.6997 14.63346436580436"}}, "geometry": {"type": "Point", "coordinates": [-10.565600806913729, 20.47361739544387]}}, {"type": "Feature", "properties": {"norad_id": 40536, "name": "KOMPSAT-3A", "group": "resource", "lat": 15.038642740544223, "lon": -39.8885769694152, "alt_km": 436.36108931865783, "timestamp": "2025-12-13T18:50:04.085617+00:00", "meta": {"OBJECT_NAME": "KOMPSAT-3A", "OBJECT_ID": "2015-014A", "EPOCH": "2025-12-13T06:19:31.824192", "MEAN_MOTION": 15.43974186, "ECCENTRICITY": 0.00049731, "INCLINATION": 97.6788, "RA_OF_ASC_NODE": 321.6388, "ARG_OF_PERICENTER": 126.0764, "MEAN_ANOMALY": 234.0944, "EPHEMERIS_TYPE": 0, "CLASSIFICATION_TYPE": "U", "NORAD_CAT_ID": 40536, "ELEMENT_SET_NO": 999, "REV_AT_EPOCH": 59303, "BSTAR": 0.00063966279, "MEAN_MOTION_DOT": 0.00029119, "MEAN_MOTION_DDOT": 0}, "tle": {"line1": "1 40536U 15014A   25347.26356278  .00029119  00000+0  63966-3 0  9993", "line2": "2 40536  97.6788 321.6388 0004973 126.0764 234.0944 15.43974186593039"}}, "geometry": {"type": "Point", "coordinates": [-39.8885769694152, 15.038642740544223]}}]}